[{
  "_id": "04bb2ccb5fc751e8c124700b16e933a8",
  "_rev": "1-34e7ebd07643af43db578a46ee1d6365",
  "address": "3 Nova Court",
  "city": "El Paso",
  "full_name": "Holdlamis Car Dealership",
  "id": 1,
  "lat": 31.6948,
  "long": -106.3,
  "short_name": "Holdlamis",
  "st": "TX",
  "state": "Texas",
  "zip": "88563"
}, {
  "_id": "04bb2ccb5fc751e8c124700b16e93a8a",
  "_rev": "1-d1778a396ca8cb0ef2966a9854eb93ee",
  "address": "6337 Butternut Crossing",
  "city": "Minneapolis",
  "full_name": "Temp Car Dealership",
  "id": 2,
  "lat": 44.9762,
  "long": -93.2759,
  "short_name": "Temp",
  "st": "MN",
  "state": "Minnesota",
  "zip": "55402"
}, {
  "_id": "04bb2ccb5fc751e8c124700b16e94154",
  "_rev": "1-cc5d5c13aa879d1cef8253dfa1dce77d",
  "address": "9477 Twin Pines Center",
  "city": "Birmingham",
  "full_name": "Sub-Ex Car Dealership",
  "id": 3,
  "lat": 33.5446,
  "long": -86.9292,
  "short_name": "Sub-Ex",
  "st": "AL",
  "state": "Alabama",
  "zip": "35285"
}, {
  "_id": "04bb2ccb5fc751e8c124700b16e94467",
  "_rev": "1-a79013b42c83451d49e7e3aba4a575e3",
  "address": "85800 Hazelcrest Circle",
  "city": "Dallas",
  "full_name": "Solarbreeze Car Dealership",
  "id": 4,
  "lat": 32.6722,
  "long": -96.7774,
  "short_name": "Solarbreeze",
  "st": "TX",
  "state": "Texas",
  "zip": "75241"
}, {
  "_id": "04bb2ccb5fc751e8c124700b16e94c9d",
  "_rev": "1-c16dcd97a91588c9866814f61ea72751",
  "address": "93 Golf Course Pass",
  "city": "Baltimore",
  "full_name": "Regrant Car Dealership",
  "id": 5,
  "lat": 39.2847,
  "long": -76.6205,
  "short_name": "Regrant",
  "st": "MD",
  "state": "Maryland",
  "zip": "21203"
}, {
  "_id": "04bb2ccb5fc751e8c124700b16e953fe",
  "_rev": "1-e37424d3be7785cbdbc4ed12ec29b343",
  "address": "2 Burrows Hill",
  "city": "Wilkes Barre",
  "full_name": "Stronghold Car Dealership",
  "id": 6,
  "lat": 41.2722,
  "long": -75.8801,
  "short_name": "Stronghold",
  "st": "PA",
  "state": "Pennsylvania",
  "zip": "18763"
}, {
  "_id": "04bb2ccb5fc751e8c124700b16e95b49",
  "_rev": "1-96db320a9c736d2e08e8b1bf873d0e04",
  "address": "9 Cambridge Park",
  "city": "Pueblo",
  "full_name": "Job Car Dealership",
  "id": 7,
  "lat": 38.1286,
  "long": -104.5523,
  "short_name": "Job",
  "st": "CO",
  "state": "Colorado",
  "zip": "81010"
}, {
  "_id": "04bb2ccb5fc751e8c124700b16e96591",
  "_rev": "1-4e4889794e42a9e092c1442118889232",
  "address": "288 Larry Place",
  "city": "Topeka",
  "full_name": "Bytecard Car Dealership",
  "id": 8,
  "lat": 39.0429,
  "long": -95.7697,
  "short_name": "Bytecard",
  "st": "KS",
  "state": "Kansas",
  "zip": "66642"
}, {
  "_id": "04bb2ccb5fc751e8c124700b16e96596",
  "_rev": "1-63f1a1984f40f1de1eabceaec90f7fb6",
  "address": "253 Hanson Junction",
  "city": "Dallas",
  "full_name": "Job Car Dealership",
  "id": 9,
  "lat": 32.7086,
  "long": -96.7955,
  "short_name": "Job",
  "st": "TX",
  "state": "Texas",
  "zip": "75216"
}, {
  "_id": "04bb2ccb5fc751e8c124700b16e974c5",
  "_rev": "1-1510e7ca88f225bef573a98f9cb45452",
  "address": "108 Memorial Pass",
  "city": "Washington",
  "full_name": "Alphazap Car Dealership",
  "id": 10,
  "lat": 38.9067,
  "long": -77.0312,
  "short_name": "Alphazap",
  "st": "DC",
  "state": "District of Columbia",
  "zip": "20005"
}]